0 COSMOS 1247 DEB
1 26786U 81016J   13275.18763801 -.00000224  00000-0  00000+0 0  6521
2 26786 069.0424 317.5024 5688250 090.3428 354.3715 02.05159052129524
0 COSMOS 1247 DEB
1 26786U 81016J   13276.15872265 -.00000398  00000-0  00000+0 0  6537
2 26786 069.0420 317.4437 5687630 090.3116 351.5951 02.05159101129540
0 COSMOS 1247 DEB
1 26786U 81016J   13285.44733098  .00000105  00000-0  00000+0 0  6545
2 26786 069.0391 316.8898 5684168 090.0207 011.8634 02.05149319129737
